{"type":"FeatureCollection","features":[{"type":"Feature","properties":{"label":"max-ever","threshold_in":1.0,"n_cells":471,"area_km2":579.76},"geometry":{"type":"MultiPolygon","coordinates":[[[[0.07,0.34],[0.08,0.34],[0.08,0.33],[0.11,0.33],[0.11,0.34],[0.12,0.34],[0.12,0.36],[0.08,0.36],[0.08,0.35],[0.07,0.35],[0.07,0.34]]],[[[-0.2,0.29],[-0.15,0.29],[-0.15,0.31],[-0.18,0.31],[-0.18,0.3],[-0.2,0.3],[-0.2,0.29]]],[[[-0.29,0.27],[-0.25,0.27],[-0.25,0.29],[-0.29,0.29],[-0.29,0.27]]],[[[0.27,0.27],[0.28,0.27],[0.28,0.28],[0.26,0.28],[0.26,0.27],[0.23,0.27],[0.23,0.26],[0.22,0.26],[0.22,0.25],[0.21,0.25],[0.21,0.24],[0.2,0.24],[0.2,0.23],[0.19,0.23],[0.19,0.2],[0.18,0.2],[0.18,0.18],[0.19,0.18],[0.19,0.19],[0.2,0.19],[0.2,0.2],[0.21,0.2],[0.21,0.21],[0.23,0.21],[0.23,0.22],[0.24,0.22],[0.24,0.23],[0.25,0.23],[0.25,0.24],[0.26,0.24],[0.26,0.25],[0.27,0.25],[0.27,0.27]]],[[[0.18,0.18],[0.16,0.18],[0.16,0.17],[0.15,0.17],[0.15,0.16],[0.14,0.16],[0.14,0.15],[0.13,0.15],[0.13,0.14],[0.12,0.14],[0.12,0.13],[0.11,0.13],[0.11,0.12],[0.1,0.12],[0.1,0.11],[0.09,0.11],[0.09,0.1],[0.08,0.1],[0.08,0.09],[0.07,0.09],[0.07,0.08],[0.06,0.08],[0.06,0.07],[0.03,0.07],[0.03,0.06],[0.02,0.06],[0.02,0.05],[0.01,0.05],[0.01,0.04],[-0.01,0.04],[-0.01,0.05],[-0.02,0.05],[-0.02,0.06],[-0.03,0.06],[-0.03,0.07],[-0.04,0.07],[-0.04,0.08],[-0.06,0.08],[-0.06,0.06],[-0.05,0.06],[-0.05,0.05],[-0.04,0.05],[-0.04,0.04],[-0.03,0.04],[-0.03,0.03],[-0.13,0.03],[-0.13,0.02],[-0.2,0.02],[-0.2,0.01],[-0.19,0.01],[-0.19,0.0],[-0.06,0.0],[-0.06,-0.01],[-0.08,-0.01],[-0.08,-0.02],[-0.06,-0.02],[-0.06,-0.03],[-0.07,-0.03],[-0.07,-0.04],[-0.08,-0.04],[-0.08,-0.05],[-0.09,-0.05],[-0.09,-0.07],[-0.1,-0.07],[-0.1,-0.08],[-0.11,-0.08],[-0.11,-0.1],[-0.12,-0.1],[-0.12,-0.11],[-0.13,-0.11],[-0.13,-0.12],[-0.14,-0.12],[-0.14,-0.13],[-0.15,-0.13],[-0.15,-0.15],[-0.16,-0.15],[-0.16,-0.16],[-0.17,-0.16],[-0.17,-0.17],[-0.15,-0.17],[-0.15,-0.16],[-0.14,-0.16],[-0.14,-0.15],[-0.13,-0.15],[-0.13,-0.14],[-0.12,-0.14],[-0.12,-0.13],[-0.11,-0.13],[-0.11,-0.12],[-0.1,-0.12],[-0.1,-0.11],[-0.09,-0.11],[-0.09,-0.1],[-0.08,-0.1],[-0.08,-0.09],[-0.07,-0.09],[-0.07,-0.08],[-0.06,-0.08],[-0.06,-0.07],[-0.05,-0.07],[-0.05,-0.06],[-0.04,-0.06],[-0.04,-0.05],[-0.03,-0.05],[-0.03,-0.04],[-0.02,-0.04],[-0.02,-0.03],[0.04,-0.03],[0.04,-0.04],[0.05,-0.04],[0.05,-0.05],[0.06,-0.05],[0.06,-0.06],[0.07,-0.06],[0.07,-0.07],[0.08,-0.07],[0.08,-0.08],[0.09,-0.08],[0.09,-0.09],[0.1,-0.09],[0.1,-0.1],[0.12,-0.1],[0.12,-0.09],[0.11,-0.09],[0.11,-0.08],[0.1,-0.08],[0.1,-0.06],[0.09,-0.06],[0.09,-0.05],[0.08,-0.05],[0.08,-0.04],[0.07,-0.04],[0.07,-0.02],[0.13,-0.02],[0.13,-0.01],[0.12,-0.01],[0.12,0.0],[0.11,0.0],[0.11,0.01],[0.12,0.01],[0.12,0.02],[0.11,0.02],[0.11,0.03],[0.06,0.03],[0.06,0.04],[0.07,0.04],[0.07,0.06],[0.08,0.06],[0.08,0.07],[0.09,0.07],[0.09,0.08],[0.1,0.08],[0.1,0.09],[0.11,0.09],[0.11,0.1],[0.12,0.1],[0.12,0.11],[0.13,0.11],[0.13,0.12],[0.14,0.12],[0.14,0.14],[0.15,0.14],[0.15,0.15],[0.16,0.15],[0.16,0.16],[0.17,0.16],[0.17,0.17],[0.18,0.17],[0.18,0.18]]],[[[-0.07,0.08],[-0.06,0.08],[-0.06,0.09],[-0.07,0.09],[-0.07,0.08]]],[[[0.31,0.02],[0.33,0.02],[0.33,0.01],[0.39,0.01],[0.39,0.03],[0.37,0.03],[0.37,0.04],[0.35,0.04],[0.35,0.03],[0.31,0.03],[0.31,0.02]]],[[[0.17,0.01],[0.22,0.01],[0.22,0.03],[0.18,0.03],[0.18,0.02],[0.17,0.02],[0.17,0.01]]],[[[-0.41,0.0],[-0.39,0.0],[-0.39,-0.01],[-0.37,-0.01],[-0.37,0.0],[-0.27,0.0],[-0.27,0.02],[-0.32,0.02],[-0.32,0.01],[-0.35,0.01],[-0.35,0.02],[-0.39,0.02],[-0.39,0.01],[-0.41,0.01],[-0.41,0.0]]],[[[0.35,-0.01],[0.38,-0.01],[0.38,0.0],[0.35,0.0],[0.35,-0.01]]],[[[-0.12,-0.02],[-0.11,-0.02],[-0.11,-0.01],[-0.18,-0.01],[-0.18,-0.03],[-0.12,-0.03],[-0.12,-0.02]]],[[[-0.41,-0.03],[-0.36,-0.03],[-0.36,-0.02],[-0.41,-0.02],[-0.41,-0.03]]],[[[0.12,-0.11],[0.13,-0.11],[0.13,-0.1],[0.12,-0.1],[0.12,-0.11]]],[[[-0.2,-0.21],[-0.19,-0.21],[-0.19,-0.19],[-0.2,-0.19],[-0.2,-0.2],[-0.21,-0.2],[-0.21,-0.21],[-0.25,-0.21],[-0.25,-0.22],[-0.26,-0.22],[-0.26,-0.23],[-0.27,-0.23],[-0.27,-0.24],[-0.28,-0.24],[-0.28,-0.25],[-0.29,-0.25],[-0.29,-0.26],[-0.3,-0.26],[-0.3,-0.27],[-0.31,-0.27],[-0.31,-0.3],[-0.32,-0.3],[-0.32,-0.31],[-0.33,-0.31],[-0.33,-0.32],[-0.34,-0.32],[-0.34,-0.33],[-0.35,-0.33],[-0.35,-0.34],[-0.36,-0.34],[-0.36,-0.35],[-0.37,-0.35],[-0.37,-0.38],[-0.36,-0.38],[-0.36,-0.37],[-0.35,-0.37],[-0.35,-0.36],[-0.33,-0.36],[-0.33,-0.34],[-0.32,-0.34],[-0.32,-0.33],[-0.31,-0.33],[-0.31,-0.32],[-0.3,-0.32],[-0.3,-0.31],[-0.29,-0.31],[-0.29,-0.3],[-0.28,-0.3],[-0.28,-0.29],[-0.27,-0.29],[-0.27,-0.28],[-0.26,-0.28],[-0.26,-0.27],[-0.25,-0.27],[-0.25,-0.26],[-0.24,-0.26],[-0.24,-0.25],[-0.23,-0.25],[-0.23,-0.24],[-0.22,-0.24],[-0.22,-0.23],[-0.21,-0.23],[-0.21,-0.22],[-0.2,-0.22],[-0.2,-0.21]]]]}},{"type":"Feature","properties":{"label":"max-ever","threshold_in":1.5,"n_cells":132,"area_km2":162.48},"geometry":{"type":"MultiPolygon","coordinates":[[[[0.24,0.24],[0.23,0.24],[0.23,0.23],[0.24,0.23],[0.24,0.24]]],[[[0.24,0.24],[0.25,0.24],[0.25,0.25],[0.24,0.25],[0.24,0.24]]],[[[0.1,0.1],[0.08,0.1],[0.08,0.09],[0.07,0.09],[0.07,0.08],[0.06,0.08],[0.06,0.06],[0.04,0.06],[0.04,0.05],[0.03,0.05],[0.03,0.04],[0.02,0.04],[0.02,0.03],[-0.04,0.03],[-0.04,0.02],[-0.12,0.02],[-0.12,0.01],[-0.11,0.01],[-0.11,0.0],[-0.04,0.0],[-0.04,-0.01],[-0.05,-0.01],[-0.05,-0.03],[-0.04,-0.03],[-0.04,-0.04],[-0.05,-0.04],[-0.05,-0.05],[-0.06,-0.05],[-0.06,-0.06],[-0.04,-0.06],[-0.04,-0.05],[-0.03,-0.05],[-0.03,-0.04],[-0.02,-0.04],[-0.02,-0.03],[-0.01,-0.03],[-0.01,-0.02],[0.05,-0.02],[0.05,-0.01],[0.04,-0.01],[0.04,0.0],[0.02,0.0],[0.02,0.01],[0.09,0.01],[0.09,0.02],[0.04,0.02],[0.04,0.03],[0.05,0.03],[0.05,0.04],[0.06,0.04],[0.06,0.05],[0.07,0.05],[0.07,0.06],[0.08,0.06],[0.08,0.07],[0.09,0.07],[0.09,0.08],[0.1,0.08],[0.1,0.1]]],[[[0.1,0.1],[0.11,0.1],[0.11,0.11],[0.1,0.11],[0.1,0.1]]],[[[0.06,-0.05],[0.07,-0.05],[0.07,-0.04],[0.06,-0.04],[0.06,-0.05]]],[[[-0.06,-0.06],[-0.07,-0.06],[-0.07,-0.07],[-0.06,-0.07],[-0.06,-0.06]]],[[[-0.07,-0.07],[-0.08,-0.07],[-0.08,-0.08],[-0.07,-0.08],[-0.07,-0.07]]],[[[-0.08,-0.08],[-0.09,-0.08],[-0.09,-0.09],[-0.08,-0.09],[-0.08,-0.08]]],[[[-0.09,-0.09],[-0.1,-0.09],[-0.1,-0.1],[-0.09,-0.1],[-0.09,-0.09]]],[[[-0.23,-0.24],[-0.22,-0.24],[-0.22,-0.22],[-0.23,-0.22],[-0.23,-0.23],[-0.26,-0.23],[-0.26,-0.24],[-0.27,-0.24],[-0.27,-0.25],[-0.28,-0.25],[-0.28,-0.26],[-0.29,-0.26],[-0.29,-0.27],[-0.3,-0.27],[-0.3,-0.28],[-0.29,-0.28],[-0.29,-0.29],[-0.3,-0.29],[-0.3,-0.3],[-0.28,-0.3],[-0.28,-0.29],[-0.27,-0.29],[-0.27,-0.28],[-0.26,-0.28],[-0.26,-0.27],[-0.25,-0.27],[-0.25,-0.26],[-0.24,-0.26],[-0.24,-0.25],[-0.23,-0.25],[-0.23,-0.24]]],[[[-0.3,-0.3],[-0.31,-0.3],[-0.31,-0.31],[-0.3,-0.31],[-0.3,-0.3]]],[[[-0.31,-0.31],[-0.32,-0.31],[-0.32,-0.32],[-0.31,-0.32],[-0.31,-0.31]]],[[[-0.32,-0.32],[-0.33,-0.32],[-0.33,-0.33],[-0.35,-0.33],[-0.35,-0.35],[-0.36,-0.35],[-0.36,-0.36],[-0.34,-0.36],[-0.34,-0.35],[-0.33,-0.35],[-0.33,-0.34],[-0.32,-0.34],[-0.32,-0.32]]]]}},{"type":"Feature","properties":{"label":"max-ever","threshold_in":2.0,"n_cells":24,"area_km2":29.54},"geometry":{"type":"MultiPolygon","coordinates":[[[[0.03,0.02],[0.04,0.02],[0.04,0.04],[0.03,0.04],[0.03,0.03],[0.01,0.03],[0.01,0.02],[-0.04,0.02],[-0.04,0.01],[-0.01,0.01],[-0.01,0.0],[-0.03,0.0],[-0.03,-0.01],[-0.02,-0.01],[-0.02,-0.02],[0.0,-0.02],[0.0,-0.01],[0.01,-0.01],[0.01,0.0],[0.02,0.0],[0.02,0.01],[0.03,0.01],[0.03,0.02]]],[[[-0.02,-0.02],[-0.03,-0.02],[-0.03,-0.03],[-0.02,-0.03],[-0.02,-0.02]]],[[[-0.25,-0.25],[-0.26,-0.25],[-0.26,-0.26],[-0.25,-0.26],[-0.25,-0.25]]],[[[-0.25,-0.25],[-0.24,-0.25],[-0.24,-0.24],[-0.25,-0.24],[-0.25,-0.25]]],[[[-0.26,-0.26],[-0.27,-0.26],[-0.27,-0.27],[-0.26,-0.27],[-0.26,-0.26]]]]}},{"type":"Feature","properties":{"label":"EV-20210518","threshold_in":1.0,"n_cells":70,"area_km2":86.16},"geometry":{"type":"MultiPolygon","coordinates":[[[[0.35,-0.01],[0.38,-0.01],[0.38,0.0],[0.35,0.0],[0.35,-0.01]]],[[[-0.12,-0.02],[-0.11,-0.02],[-0.11,-0.01],[-0.18,-0.01],[-0.18,-0.03],[-0.12,-0.03],[-0.12,-0.02]]],[[[-0.08,-0.02],[-0.03,-0.02],[-0.03,-0.03],[0.07,-0.03],[0.07,-0.02],[0.13,-0.02],[0.13,-0.01],[0.12,-0.01],[0.12,0.0],[-0.06,0.0],[-0.06,-0.01],[-0.08,-0.01],[-0.08,-0.02]]],[[[-0.41,-0.03],[-0.36,-0.03],[-0.36,-0.02],[-0.41,-0.02],[-0.41,-0.03]]]]}},{"type":"Feature","properties":{"label":"EV-20210518","threshold_in":1.5,"n_cells":10,"area_km2":12.31},"geometry":{"type":"MultiPolygon","coordinates":[[[[-0.01,-0.02],[0.05,-0.02],[0.05,-0.01],[0.04,-0.01],[0.04,0.0],[0.0,0.0],[0.0,-0.01],[-0.01,-0.01],[-0.01,-0.02]]]]}},{"type":"Feature","properties":{"label":"EV-20210721","threshold_in":1.0,"n_cells":28,"area_km2":34.46},"geometry":{"type":"MultiPolygon","coordinates":[[[[0.07,0.34],[0.08,0.34],[0.08,0.33],[0.11,0.33],[0.11,0.34],[0.12,0.34],[0.12,0.36],[0.08,0.36],[0.08,0.35],[0.07,0.35],[0.07,0.34]]],[[[-0.2,0.29],[-0.15,0.29],[-0.15,0.31],[-0.18,0.31],[-0.18,0.3],[-0.2,0.3],[-0.2,0.29]]],[[[-0.29,0.27],[-0.25,0.27],[-0.25,0.29],[-0.29,0.29],[-0.29,0.27]]]]}},{"type":"Feature","properties":{"label":"EV-20220708","threshold_in":1.0,"n_cells":179,"area_km2":220.33},"geometry":{"type":"MultiPolygon","coordinates":[[[[0.27,0.27],[0.28,0.27],[0.28,0.28],[0.26,0.28],[0.26,0.27],[0.25,0.27],[0.25,0.26],[0.24,0.26],[0.24,0.25],[0.23,0.25],[0.23,0.24],[0.22,0.24],[0.22,0.23],[0.21,0.23],[0.21,0.22],[0.2,0.22],[0.2,0.21],[0.19,0.21],[0.19,0.2],[0.18,0.2],[0.18,0.18],[0.19,0.18],[0.19,0.19],[0.2,0.19],[0.2,0.2],[0.21,0.2],[0.21,0.21],[0.23,0.21],[0.23,0.22],[0.24,0.22],[0.24,0.23],[0.25,0.23],[0.25,0.24],[0.26,0.24],[0.26,0.25],[0.27,0.25],[0.27,0.27]]],[[[0.18,0.18],[0.16,0.18],[0.16,0.17],[0.15,0.17],[0.15,0.16],[0.14,0.16],[0.14,0.15],[0.13,0.15],[0.13,0.14],[0.12,0.14],[0.12,0.13],[0.11,0.13],[0.11,0.12],[0.1,0.12],[0.1,0.11],[0.09,0.11],[0.09,0.1],[0.08,0.1],[0.08,0.09],[0.07,0.09],[0.07,0.08],[0.06,0.08],[0.06,0.07],[0.05,0.07],[0.05,0.06],[0.04,0.06],[0.04,0.05],[0.03,0.05],[0.03,0.04],[0.02,0.04],[0.02,0.03],[0.0,0.03],[0.0,0.02],[-0.01,0.02],[-0.01,0.0],[-0.02,0.0],[-0.02,-0.01],[-0.03,-0.01],[-0.03,-0.02],[-0.04,-0.02],[-0.04,-0.03],[-0.05,-0.03],[-0.05,-0.04],[-0.06,-0.04],[-0.06,-0.05],[-0.07,-0.05],[-0.07,-0.06],[-0.08,-0.06],[-0.08,-0.07],[-0.09,-0.07],[-0.09,-0.08],[-0.1,-0.08],[-0.1,-0.09],[-0.11,-0.09],[-0.11,-0.1],[-0.12,-0.1],[-0.12,-0.11],[-0.13,-0.11],[-0.13,-0.12],[-0.14,-0.12],[-0.14,-0.13],[-0.15,-0.13],[-0.15,-0.15],[-0.16,-0.15],[-0.16,-0.16],[-0.17,-0.16],[-0.17,-0.17],[-0.15,-0.17],[-0.15,-0.16],[-0.14,-0.16],[-0.14,-0.15],[-0.13,-0.15],[-0.13,-0.14],[-0.12,-0.14],[-0.12,-0.13],[-0.11,-0.13],[-0.11,-0.12],[-0.1,-0.12],[-0.1,-0.11],[-0.09,-0.11],[-0.09,-0.1],[-0.08,-0.1],[-0.08,-0.09],[-0.07,-0.09],[-0.07,-0.08],[-0.06,-0.08],[-0.06,-0.07],[-0.05,-0.07],[-0.05,-0.06],[-0.04,-0.06],[-0.04,-0.05],[-0.03,-0.05],[-0.03,-0.04],[-0.02,-0.04],[-0.02,-0.03],[-0.01,-0.03],[-0.01,-0.02],[0.0,-0.02],[0.0,-0.01],[0.01,-0.01],[0.01,0.0],[0.02,0.0],[0.02,0.01],[0.04,0.01],[0.04,0.02],[0.05,0.02],[0.05,0.03],[0.06,0.03],[0.06,0.04],[0.07,0.04],[0.07,0.06],[0.08,0.06],[0.08,0.07],[0.09,0.07],[0.09,0.08],[0.1,0.08],[0.1,0.09],[0.11,0.09],[0.11,0.1],[0.12,0.1],[0.12,0.11],[0.13,0.11],[0.13,0.12],[0.14,0.12],[0.14,0.14],[0.15,0.14],[0.15,0.15],[0.16,0.15],[0.16,0.16],[0.17,0.16],[0.17,0.17],[0.18,0.17],[0.18,0.18]]],[[[-0.2,-0.21],[-0.19,-0.21],[-0.19,-0.19],[-0.2,-0.19],[-0.2,-0.2],[-0.21,-0.2],[-0.21,-0.21],[-0.23,-0.21],[-0.23,-0.22],[-0.24,-0.22],[-0.24,-0.23],[-0.25,-0.23],[-0.25,-0.24],[-0.26,-0.24],[-0.26,-0.25],[-0.27,-0.25],[-0.27,-0.26],[-0.28,-0.26],[-0.28,-0.27],[-0.29,-0.27],[-0.29,-0.28],[-0.3,-0.28],[-0.3,-0.29],[-0.31,-0.29],[-0.31,-0.3],[-0.32,-0.3],[-0.32,-0.31],[-0.33,-0.31],[-0.33,-0.32],[-0.34,-0.32],[-0.34,-0.33],[-0.35,-0.33],[-0.35,-0.34],[-0.36,-0.34],[-0.36,-0.35],[-0.37,-0.35],[-0.37,-0.38],[-0.36,-0.38],[-0.36,-0.37],[-0.35,-0.37],[-0.35,-0.36],[-0.33,-0.36],[-0.33,-0.34],[-0.32,-0.34],[-0.32,-0.33],[-0.31,-0.33],[-0.31,-0.32],[-0.3,-0.32],[-0.3,-0.31],[-0.29,-0.31],[-0.29,-0.3],[-0.28,-0.3],[-0.28,-0.29],[-0.27,-0.29],[-0.27,-0.28],[-0.26,-0.28],[-0.26,-0.27],[-0.25,-0.27],[-0.25,-0.26],[-0.24,-0.26],[-0.24,-0.25],[-0.23,-0.25],[-0.23,-0.24],[-0.22,-0.24],[-0.22,-0.23],[-0.21,-0.23],[-0.21,-0.22],[-0.2,-0.22],[-0.2,-0.21]]]]}},{"type":"Feature","properties":{"label":"EV-20220708","threshold_in":1.5,"n_cells":80,"area_km2":98.47},"geometry":{"type":"MultiPolygon","coordinates":[[[[0.24,0.24],[0.23,0.24],[0.23,0.23],[0.24,0.23],[0.24,0.24]]],[[[0.24,0.24],[0.25,0.24],[0.25,0.25],[0.24,0.25],[0.24,0.24]]],[[[0.1,0.1],[0.08,0.1],[0.08,0.09],[0.07,0.09],[0.07,0.08],[0.06,0.08],[0.06,0.06],[0.04,0.06],[0.04,0.05],[0.03,0.05],[0.03,0.04],[0.02,0.04],[0.02,0.03],[0.01,0.03],[0.01,0.02],[0.0,0.02],[0.0,0.01],[-0.01,0.01],[-0.01,0.0],[-0.02,0.0],[-0.02,-0.01],[-0.03,-0.01],[-0.03,-0.02],[-0.04,-0.02],[-0.04,-0.04],[-0.05,-0.04],[-0.05,-0.05],[-0.06,-0.05],[-0.06,-0.06],[-0.04,-0.06],[-0.04,-0.05],[-0.03,-0.05],[-0.03,-0.04],[-0.02,-0.04],[-0.02,-0.03],[-0.01,-0.03],[-0.01,-0.02],[0.0,-0.02],[0.0,-0.01],[0.01,-0.01],[0.01,0.0],[0.02,0.0],[0.02,0.01],[0.03,0.01],[0.03,0.02],[0.04,0.02],[0.04,0.03],[0.05,0.03],[0.05,0.04],[0.06,0.04],[0.06,0.05],[0.07,0.05],[0.07,0.06],[0.08,0.06],[0.08,0.07],[0.09,0.07],[0.09,0.08],[0.1,0.08],[0.1,0.1]]],[[[0.1,0.1],[0.11,0.1],[0.11,0.11],[0.1,0.11],[0.1,0.1]]],[[[-0.06,-0.06],[-0.07,-0.06],[-0.07,-0.07],[-0.06,-0.07],[-0.06,-0.06]]],[[[-0.07,-0.07],[-0.08,-0.07],[-0.08,-0.08],[-0.07,-0.08],[-0.07,-0.07]]],[[[-0.08,-0.08],[-0.09,-0.08],[-0.09,-0.09],[-0.08,-0.09],[-0.08,-0.08]]],[[[-0.09,-0.09],[-0.1,-0.09],[-0.1,-0.1],[-0.09,-0.1],[-0.09,-0.09]]],[[[-0.23,-0.24],[-0.22,-0.24],[-0.22,-0.22],[-0.23,-0.22],[-0.23,-0.23],[-0.25,-0.23],[-0.25,-0.24],[-0.26,-0.24],[-0.26,-0.25],[-0.27,-0.25],[-0.27,-0.26],[-0.28,-0.26],[-0.28,-0.27],[-0.29,-0.27],[-0.29,-0.29],[-0.3,-0.29],[-0.3,-0.3],[-0.28,-0.3],[-0.28,-0.29],[-0.27,-0.29],[-0.27,-0.28],[-0.26,-0.28],[-0.26,-0.27],[-0.25,-0.27],[-0.25,-0.26],[-0.24,-0.26],[-0.24,-0.25],[-0.23,-0.25],[-0.23,-0.24]]],[[[-0.3,-0.3],[-0.31,-0.3],[-0.31,-0.31],[-0.3,-0.31],[-0.3,-0.3]]],[[[-0.31,-0.31],[-0.32,-0.31],[-0.32,-0.32],[-0.31,-0.32],[-0.31,-0.31]]],[[[-0.32,-0.32],[-0.33,-0.32],[-0.33,-0.33],[-0.35,-0.33],[-0.35,-0.35],[-0.36,-0.35],[-0.36,-0.36],[-0.34,-0.36],[-0.34,-0.35],[-0.33,-0.35],[-0.33,-0.34],[-0.32,-0.34],[-0.32,-0.32]]]]}},{"type":"Feature","properties":{"label":"EV-20220708","threshold_in":2.0,"n_cells":19,"area_km2":23.39},"geometry":{"type":"MultiPolygon","coordinates":[[[[0.03,0.02],[0.04,0.02],[0.04,0.04],[0.03,0.04],[0.03,0.03],[0.01,0.03],[0.01,0.02],[0.0,0.02],[0.0,0.01],[-0.01,0.01],[-0.01,0.0],[-0.02,0.0],[-0.02,-0.02],[0.0,-0.02],[0.0,-0.01],[0.01,-0.01],[0.01,0.0],[0.02,0.0],[0.02,0.01],[0.03,0.01],[0.03,0.02]]],[[[-0.02,-0.02],[-0.03,-0.02],[-0.03,-0.03],[-0.02,-0.03],[-0.02,-0.02]]],[[[-0.25,-0.25],[-0.26,-0.25],[-0.26,-0.26],[-0.25,-0.26],[-0.25,-0.25]]],[[[-0.25,-0.25],[-0.24,-0.25],[-0.24,-0.24],[-0.25,-0.24],[-0.25,-0.25]]],[[[-0.26,-0.26],[-0.27,-0.26],[-0.27,-0.27],[-0.26,-0.27],[-0.26,-0.26]]]]}},{"type":"Feature","properties":{"label":"EV-20230526","threshold_in":1.0,"n_cells":50,"area_km2":61.55},"geometry":{"type":"MultiPolygon","coordinates":[[[[-0.07,0.08],[-0.06,0.08],[-0.06,0.09],[-0.07,0.09],[-0.07,0.08]]],[[[-0.06,0.06],[-0.05,0.06],[-0.05,0.05],[-0.04,0.05],[-0.04,0.04],[-0.03,0.04],[-0.03,0.03],[-0.02,0.03],[-0.02,0.02],[-0.01,0.02],[-0.01,0.01],[0.0,0.01],[0.0,0.0],[0.01,0.0],[0.01,-0.01],[0.02,-0.01],[0.02,-0.02],[0.03,-0.02],[0.03,-0.03],[0.04,-0.03],[0.04,-0.04],[0.05,-0.04],[0.05,-0.05],[0.06,-0.05],[0.06,-0.06],[0.07,-0.06],[0.07,-0.07],[0.08,-0.07],[0.08,-0.08],[0.09,-0.08],[0.09,-0.09],[0.1,-0.09],[0.1,-0.1],[0.12,-0.1],[0.12,-0.09],[0.11,-0.09],[0.11,-0.08],[0.1,-0.08],[0.1,-0.06],[0.09,-0.06],[0.09,-0.05],[0.08,-0.05],[0.08,-0.04],[0.07,-0.04],[0.07,-0.03],[0.06,-0.03],[0.06,-0.02],[0.04,-0.02],[0.04,-0.01],[0.03,-0.01],[0.03,0.01],[0.02,0.01],[0.02,0.02],[0.01,0.02],[0.01,0.03],[0.0,0.03],[0.0,0.04],[-0.01,0.04],[-0.01,0.05],[-0.02,0.05],[-0.02,0.06],[-0.03,0.06],[-0.03,0.07],[-0.04,0.07],[-0.04,0.08],[-0.06,0.08],[-0.06,0.06]]],[[[0.12,-0.11],[0.13,-0.11],[0.13,-0.1],[0.12,-0.1],[0.12,-0.11]]]]}},{"type":"Feature","properties":{"label":"EV-20230526","threshold_in":1.5,"n_cells":1,"area_km2":1.23},"geometry":{"type":"MultiPolygon","coordinates":[[[[0.06,-0.05],[0.07,-0.05],[0.07,-0.04],[0.06,-0.04],[0.06,-0.05]]]]}},{"type":"Feature","properties":{"label":"EV-20240703","threshold_in":1.0,"n_cells":136,"area_km2":167.4},"geometry":{"type":"MultiPolygon","coordinates":[[[[0.31,0.02],[0.33,0.02],[0.33,0.01],[0.39,0.01],[0.39,0.03],[0.37,0.03],[0.37,0.04],[0.35,0.04],[0.35,0.03],[0.31,0.03],[0.31,0.02]]],[[[-0.2,0.01],[-0.19,0.01],[-0.19,0.0],[0.11,0.0],[0.11,0.01],[0.12,0.01],[0.12,0.02],[0.11,0.02],[0.11,0.03],[-0.13,0.03],[-0.13,0.02],[-0.2,0.02],[-0.2,0.01]]],[[[0.17,0.01],[0.22,0.01],[0.22,0.03],[0.18,0.03],[0.18,0.02],[0.17,0.02],[0.17,0.01]]],[[[-0.41,0.0],[-0.39,0.0],[-0.39,-0.01],[-0.37,-0.01],[-0.37,0.0],[-0.27,0.0],[-0.27,0.02],[-0.32,0.02],[-0.32,0.01],[-0.35,0.01],[-0.35,0.02],[-0.39,0.02],[-0.39,0.01],[-0.41,0.01],[-0.41,0.0]]]]}},{"type":"Feature","properties":{"label":"EV-20240703","threshold_in":1.5,"n_cells":41,"area_km2":50.47},"geometry":{"type":"MultiPolygon","coordinates":[[[[-0.12,0.01],[-0.11,0.01],[-0.11,0.0],[0.02,0.0],[0.02,0.01],[0.09,0.01],[0.09,0.02],[0.03,0.02],[0.03,0.03],[-0.04,0.03],[-0.04,0.02],[-0.12,0.02],[-0.12,0.01]]]]}},{"type":"Feature","properties":{"label":"EV-20240703","threshold_in":2.0,"n_cells":5,"area_km2":6.15},"geometry":{"type":"MultiPolygon","coordinates":[[[[-0.04,0.01],[0.01,0.01],[0.01,0.02],[-0.04,0.02],[-0.04,0.01]]]]}},{"type":"Feature","properties":{"label":"EV-20240827","threshold_in":1.0,"n_cells":9,"area_km2":11.08},"geometry":{"type":"MultiPolygon","coordinates":[[[[0.04,0.02],[0.05,0.02],[0.05,0.03],[0.01,0.03],[0.01,0.0],[0.03,0.0],[0.03,0.01],[0.04,0.01],[0.04,0.02]]]]}},{"type":"Feature","properties":{"label":"EV-20250604","threshold_in":1.0,"n_cells":97,"area_km2":119.4},"geometry":{"type":"MultiPolygon","coordinates":[[[[0.24,0.25],[0.25,0.25],[0.25,0.27],[0.23,0.27],[0.23,0.26],[0.22,0.26],[0.22,0.25],[0.21,0.25],[0.21,0.24],[0.2,0.24],[0.2,0.23],[0.19,0.23],[0.19,0.21],[0.21,0.21],[0.21,0.22],[0.22,0.22],[0.22,0.23],[0.23,0.23],[0.23,0.24],[0.24,0.24],[0.24,0.25]]],[[[0.05,0.06],[0.06,0.06],[0.06,0.07],[0.03,0.07],[0.03,0.06],[0.02,0.06],[0.02,0.05],[0.01,0.05],[0.01,0.04],[0.0,0.04],[0.0,0.03],[-0.01,0.03],[-0.01,0.02],[-0.02,0.02],[-0.02,0.01],[-0.03,0.01],[-0.03,0.0],[-0.04,0.0],[-0.04,-0.01],[-0.05,-0.01],[-0.05,-0.02],[-0.06,-0.02],[-0.06,-0.03],[-0.07,-0.03],[-0.07,-0.04],[-0.08,-0.04],[-0.08,-0.05],[-0.09,-0.05],[-0.09,-0.07],[-0.1,-0.07],[-0.1,-0.08],[-0.08,-0.08],[-0.08,-0.07],[-0.07,-0.07],[-0.07,-0.06],[-0.06,-0.06],[-0.06,-0.05],[-0.04,-0.05],[-0.04,-0.04],[-0.03,-0.04],[-0.03,-0.03],[-0.02,-0.03],[-0.02,-0.02],[-0.01,-0.02],[-0.01,-0.01],[0.0,-0.01],[0.0,0.0],[0.01,0.0],[0.01,0.01],[0.02,0.01],[0.02,0.02],[0.03,0.02],[0.03,0.04],[0.04,0.04],[0.04,0.05],[0.05,0.05],[0.05,0.06]]],[[[-0.1,-0.08],[-0.11,-0.08],[-0.11,-0.09],[-0.1,-0.09],[-0.1,-0.08]]],[[[-0.24,-0.24],[-0.23,-0.24],[-0.23,-0.21],[-0.25,-0.21],[-0.25,-0.22],[-0.26,-0.22],[-0.26,-0.23],[-0.27,-0.23],[-0.27,-0.24],[-0.28,-0.24],[-0.28,-0.25],[-0.29,-0.25],[-0.29,-0.26],[-0.3,-0.26],[-0.3,-0.27],[-0.31,-0.27],[-0.31,-0.3],[-0.3,-0.3],[-0.3,-0.29],[-0.28,-0.29],[-0.28,-0.28],[-0.27,-0.28],[-0.27,-0.27],[-0.26,-0.27],[-0.26,-0.26],[-0.25,-0.26],[-0.25,-0.25],[-0.24,-0.25],[-0.24,-0.24]]]]}},{"type":"Feature","properties":{"label":"EV-20250604","threshold_in":1.5,"n_cells":24,"area_km2":29.54},"geometry":{"type":"MultiPolygon","coordinates":[[[[0.0,0.01],[0.01,0.01],[0.01,0.03],[0.0,0.03],[0.0,0.02],[-0.02,0.02],[-0.02,0.01],[-0.03,0.01],[-0.03,0.0],[-0.04,0.0],[-0.04,-0.01],[-0.05,-0.01],[-0.05,-0.03],[-0.03,-0.03],[-0.03,-0.02],[-0.02,-0.02],[-0.02,-0.01],[-0.01,-0.01],[-0.01,0.0],[0.0,0.0],[0.0,0.01]]],[[[-0.26,-0.25],[-0.25,-0.25],[-0.25,-0.23],[-0.26,-0.23],[-0.26,-0.24],[-0.27,-0.24],[-0.27,-0.25],[-0.28,-0.25],[-0.28,-0.26],[-0.29,-0.26],[-0.29,-0.27],[-0.3,-0.27],[-0.3,-0.28],[-0.28,-0.28],[-0.28,-0.27],[-0.27,-0.27],[-0.27,-0.26],[-0.26,-0.26],[-0.26,-0.25]]]]}},{"type":"Feature","properties":{"label":"EV-20250604","threshold_in":2.0,"n_cells":1,"area_km2":1.23},"geometry":{"type":"MultiPolygon","coordinates":[[[[-0.03,-0.01],[-0.02,-0.01],[-0.02,0.0],[-0.03,0.0],[-0.03,-0.01]]]]}}],"properties":{"synthetic_data":true,"source":"Synthetic storm season (demo)"}}
